ONEWEB-0446             
1 51640U 22012U   24246.54316345  .00000705  00000+0  19834-2 0  9990
2 51640  87.8990 166.1392 0002264  78.5028 281.6353 13.10372363123857
ONEWEB-0448             
1 51641U 22012V   24246.54814135  .00000181  00000+0  48286-3 0  9993
2 51641  87.8993 166.1386 0001900  77.9162 282.2178 13.10371505123828
ONEWEB-0449             
1 51642U 22012W   24246.47675818  .00000355  00000+0  98106-3 0  9998
2 51642  87.8981 166.1438 0002026  68.2241 291.9102 13.10369701123824
ONEWEB-0451             
1 51643U 22012X   24246.76553436  .00000037  00000+0  61293-4 0  9997
2 51643  87.9154 135.7984 0001740  74.1291 286.0033 13.17651424129040
ONEWEB-0452             
1 51644U 22012Y   24246.61204336  .00000156  00000+0  36776-3 0  9993
2 51644  87.9162 135.8735 0001795  65.2072 294.9246 13.17648437127731
ONEWEB-0456             
1 51646U 22012AA  24246.71579595 -.00000406  00000+0 -12002-2 0  9993
2 51646  87.8976 166.0660 0001679  83.6301 276.5017 13.10364832125184
ONEWEB-0457             
1 51647U 22012AB  24246.53984317  .00000722  00000+0  20314-2 0  9990
2 51647  87.8993 166.1296 0002196  71.7469 288.3897 13.10373576123874
ONEWEB-0458             
1 51648U 22012AC  24246.48504922 -.00000093  00000+0 -30228-3 0  9994
2 51648  87.8990 166.1569 0001802  71.4471 288.6852 13.10369617123828
